SAUDISAT 1C (SO-50)     
1 27607U 02058C   26162.55839360  .00000916  00000+0  12536-3 0  9998
2 27607  64.5506 146.4007 0075403 263.5157  95.7360 14.83034770263626
SAUDISAT 2              
1 28371U 04025F   26162.94595450  .00000224  00000+0  61122-4 0  9993
2 28371  98.5507 162.7924 0023800 315.0378  44.8891 14.56680884164980
SAUDISAT 3              
1 31118U 07012B   26162.81850782  .00000207  00000+0  41641-4 0  9998
2 31118  98.1454 113.2156 0013396 242.3749 117.6098 14.71422525 26956
PISAT                   
1 41784U 16059B   26162.96720999  .00000767  00000+0  13830-3 0  9990
2 41784  97.8178 163.6443 0027986 219.9481 139.9666 14.68974744518973
FLYING LAPTOP           
1 42831U 17042G   26162.98616994  .00002592  00000+0  20619-3 0  9999
2 42831  97.4661 318.7203 0019336 138.5659 221.7036 15.01110967485678
SALSAT                  
1 46495U 20068K   26162.97803982  .00007008  00000+0  24606-3 0  9992
2 46495  97.8848 165.7257 0008496 329.8396  30.2352 15.29724756314566
