OBJECT_NAME,OBJECT_ID,EPOCH,MEAN_MOTION,ECCENTRICITY,INCLINATION,RA_OF_ASC_NODE,ARG_OF_PERICENTER,MEAN_ANOMALY,EPHEMERIS_TYPE,CLASSIFICATION_TYPE,NORAD_CAT_ID,ELEMENT_SET_NO,REV_AT_EPOCH,BSTAR,MEAN_MOTION_DOT,MEAN_MOTION_DDOT
SAUDISAT 1C (SO-50),2002-058C,2026-06-11T13:24:05.207040,14.83034770,.0075403,64.5506,146.4007,263.5157,95.7360,0,U,27607,999,26362,.12536E-3,.916E-5,0
SAUDISAT 2,2004-025F,2026-06-11T22:42:10.468800,14.56680884,.00238,98.5507,162.7924,315.0378,44.8891,0,U,28371,999,16498,.6112204E-4,.224E-5,0
SAUDISAT 3,2007-012B,2026-06-11T19:38:39.075648,14.71422525,.00133968,98.1454,113.2156,242.3749,117.6098,0,U,31118,999,2695,.41640985E-4,.207E-5,0
PISAT,2016-059B,2026-06-11T23:12:46.943136,14.68974744,.00279865,97.8178,163.6443,219.9481,139.9666,0,U,41784,999,51897,.13830027E-3,.767E-5,0
FLYING LAPTOP,2017-042G,2026-06-11T23:40:05.082816,15.01110967,.00193363,97.4661,318.7203,138.5659,221.7036,0,U,42831,999,48567,.20619158E-3,.2592E-4,0
SALSAT,2020-068K,2026-06-11T23:28:22.640448,15.29724756,.00084963,97.8848,165.7257,329.8396,30.2352,0,U,46495,999,31456,.24606051E-3,.7008E-4,0
